{
  "links" : {
    "next" : "https://api.nasa.gov/neo/rest/v1/feed?start_date=2004-05-16&end_date=2004-05-16&detailed=true&api_key=t0TVs3DtDT2H8Oy2Zy8m2eVrNsAVKAexjcZXUckd",
    "prev" : "https://api.nasa.gov/neo/rest/v1/feed?start_date=2004-05-14&end_date=2004-05-14&detailed=true&api_key=t0TVs3DtDT2H8Oy2Zy8m2eVrNsAVKAexjcZXUckd",
    "self" : "https://api.nasa.gov/neo/rest/v1/feed?start_date=2004-05-15&end_date=2004-05-15&detailed=true&api_key=t0TVs3DtDT2H8Oy2Zy8m2eVrNsAVKAexjcZXUckd"
  },
  "element_count" : 4,
  "near_earth_objects" : {
    "2004-05-15" : [ {
      "links" : {
        "self" : "https://api.nasa.gov/neo/rest/v1/neo/2010563?api_key=t0TVs3DtDT2H8Oy2Zy8m2eVrNsAVKAexjcZXUckd"
      },
      "neo_reference_id" : "2010563",
      "name" : "10563 Izhdubar (1993 WD)",
      "nasa_jpl_url" : "http://ssd.jpl.nasa.gov/sbdb.cgi?sstr=2010563",
      "absolute_magnitude_h" : 16.8,
      "estimated_diameter" : {
        "kilometers" : {
          "estimated_diameter_min" : 1.1602590821,
          "estimated_diameter_max" : 2.5944181791
        },
        "meters" : {
          "estimated_diameter_min" : 1160.2590820944,
          "estimated_diameter_max" : 2594.4181790745
        },
        "miles" : {
          "estimated_diameter_min" : 0.7209513461,
          "estimated_diameter_max" : 1.6120962183
        },
        "feet" : {
          "estimated_diameter_min" : 3806.6244068985,
          "estimated_diameter_max" : 8511.8709386348
        }
      },
      "is_potentially_hazardous_asteroid" : false,
      "close_approach_data" : [ {
        "close_approach_date" : "2004-05-15",
        "epoch_date_close_approach" : 1084604400000,
        "relative_velocity" : {
          "kilometers_per_second" : "35.2109282679",
          "kilometers_per_hour" : "126759.3417645534",
          "miles_per_hour" : "78763.325442536"
        },
        "miss_distance" : {
          "astronomical" : "0.2188480918",
          "lunar" : "85.1319122314",
          "kilometers" : "32739210",
          "miles" : "20343202"
        },
        "orbiting_body" : "Earth"
      } ],
      "orbital_data" : {
        "orbit_id" : "65",
        "orbit_determination_date" : "2017-04-06 09:29:55",
        "orbit_uncertainty" : "0",
        "minimum_orbit_intersection" : ".145897",
        "jupiter_tisserand_invariant" : "5.546",
        "epoch_osculation" : "2458000.5",
        "eccentricity" : ".2663994687069813",
        "semi_major_axis" : "1.00691912020289",
        "inclination" : "63.46349360666655",
        "ascending_node_longitude" : "56.56469836729689",
        "orbital_period" : "369.054332757176",
        "perihelion_distance" : ".7386764015499393",
        "perihelion_argument" : "132.2062796123216",
        "aphelion_distance" : "1.275161838855841",
        "perihelion_time" : "2457907.834644239439",
        "mean_anomaly" : "90.39191553334585",
        "mean_motion" : ".9754661253004894",
        "equinox" : "J2000"
      }
    }, {
      "links" : {
        "self" : "https://api.nasa.gov/neo/rest/v1/neo/2154631?api_key=t0TVs3DtDT2H8Oy2Zy8m2eVrNsAVKAexjcZXUckd"
      },
      "neo_reference_id" : "2154631",
      "name" : "154631 (2003 WO25)",
      "nasa_jpl_url" : "http://ssd.jpl.nasa.gov/sbdb.cgi?sstr=2154631",
      "absolute_magnitude_h" : 18.1,
      "estimated_diameter" : {
        "kilometers" : {
          "estimated_diameter_min" : 0.6376097899,
          "estimated_diameter_max" : 1.4257388333
        },
        "meters" : {
          "estimated_diameter_min" : 637.6097898754,
          "estimated_diameter_max" : 1425.7388332807
        },
        "miles" : {
          "estimated_diameter_min" : 0.3961922327,
          "estimated_diameter_max" : 0.8859127646
        },
        "feet" : {
          "estimated_diameter_min" : 2091.8957030147,
          "estimated_diameter_max" : 4677.6209937807
        }
      },
      "is_potentially_hazardous_asteroid" : false,
      "close_approach_data" : [ {
        "close_approach_date" : "2004-05-15",
        "epoch_date_close_approach" : 1084604400000,
        "relative_velocity" : {
          "kilometers_per_second" : "15.529207734",
          "kilometers_per_hour" : "55905.1478425091",
          "miles_per_hour" : "34737.2847802524"
        },
        "miss_distance" : {
          "astronomical" : "0.2462876024",
          "lunar" : "95.8058776855",
          "kilometers" : "36844100",
          "miles" : "22893862"
        },
        "orbiting_body" : "Earth"
      } ],
      "orbital_data" : {
        "orbit_id" : "37",
        "orbit_determination_date" : "2017-04-06 09:26:54",
        "orbit_uncertainty" : "0",
        "minimum_orbit_intersection" : ".201542",
        "jupiter_tisserand_invariant" : "4.258",
        "epoch_osculation" : "2458000.5",
        "eccentricity" : ".4916122190505855",
        "semi_major_axis" : "1.557158211995408",
        "inclination" : "15.90260628998115",
        "ascending_node_longitude" : "357.8749710983155",
        "orbital_period" : "709.7371488548059",
        "perihelion_distance" : ".7916402079835034",
        "perihelion_argument" : "176.0096549342389",
        "aphelion_distance" : "2.322676216007312",
        "perihelion_time" : "2458072.840093847134",
        "mean_anomaly" : "323.3069315492518",
        "mean_motion" : ".5072300366140857",
        "equinox" : "J2000"
      }
    }, {
      "links" : {
        "self" : "https://api.nasa.gov/neo/rest/v1/neo/2164120?api_key=t0TVs3DtDT2H8Oy2Zy8m2eVrNsAVKAexjcZXUckd"
      },
      "neo_reference_id" : "2164120",
      "name" : "164120 (2003 YK)",
      "nasa_jpl_url" : "http://ssd.jpl.nasa.gov/sbdb.cgi?sstr=2164120",
      "absolute_magnitude_h" : 19.1,
      "estimated_diameter" : {
        "kilometers" : {
          "estimated_diameter_min" : 0.4023045798,
          "estimated_diameter_max" : 0.8995803882
        },
        "meters" : {
          "estimated_diameter_min" : 402.3045798343,
          "estimated_diameter_max" : 899.5803881691
        },
        "miles" : {
          "estimated_diameter_min" : 0.2499803991,
          "estimated_diameter_max" : 0.5589731654
        },
        "feet" : {
          "estimated_diameter_min" : 1319.8969577037,
          "estimated_diameter_max" : 2951.3793207207
        }
      },
      "is_potentially_hazardous_asteroid" : false,
      "close_approach_data" : [ {
        "close_approach_date" : "2004-05-15",
        "epoch_date_close_approach" : 1084604400000,
        "relative_velocity" : {
          "kilometers_per_second" : "13.5048828985",
          "kilometers_per_hour" : "48617.5784344729",
          "miles_per_hour" : "30209.0725555757"
        },
        "miss_distance" : {
          "astronomical" : "0.2315746943",
          "lunar" : "90.0825576782",
          "kilometers" : "34643084",
          "miles" : "21526214"
        },
        "orbiting_body" : "Earth"
      } ],
      "orbital_data" : {
        "orbit_id" : "39",
        "orbit_determination_date" : "2017-06-16 06:17:49",
        "orbit_uncertainty" : "0",
        "minimum_orbit_intersection" : ".0826351",
        "jupiter_tisserand_invariant" : "4.407",
        "epoch_osculation" : "2458000.5",
        "eccentricity" : ".4080198812070027",
        "semi_major_axis" : "1.512118410550147",
        "inclination" : "11.03128462859262",
        "ascending_node_longitude" : "345.6522448309109",
        "orbital_period" : "679.1678643197661",
        "perihelion_distance" : ".8951440363065541",
        "perihelion_argument" : "189.5838495646886",
        "aphelion_distance" : "2.12909278479374",
        "perihelion_time" : "2457853.590464515788",
        "mean_anomaly" : "77.87092934275782",
        "mean_motion" : ".5300604149764434",
        "equinox" : "J2000"
      }
    }, {
      "links" : {
        "self" : "https://api.nasa.gov/neo/rest/v1/neo/3387092?api_key=t0TVs3DtDT2H8Oy2Zy8m2eVrNsAVKAexjcZXUckd"
      },
      "neo_reference_id" : "3387092",
      "name" : "(2007 SG11)",
      "nasa_jpl_url" : "http://ssd.jpl.nasa.gov/sbdb.cgi?sstr=3387092",
      "absolute_magnitude_h" : 22.6,
      "estimated_diameter" : {
        "kilometers" : {
          "estimated_diameter_min" : 0.0802703167,
          "estimated_diameter_max" : 0.1794898848
        },
        "meters" : {
          "estimated_diameter_min" : 80.2703167283,
          "estimated_diameter_max" : 179.4898847799
        },
        "miles" : {
          "estimated_diameter_min" : 0.049877647,
          "estimated_diameter_max" : 0.1115298092
        },
        "feet" : {
          "estimated_diameter_min" : 263.3540659348,
          "estimated_diameter_max" : 588.8775935812
        }
      },
      "is_potentially_hazardous_asteroid" : false,
      "close_approach_data" : [ {
        "close_approach_date" : "2004-05-15",
        "epoch_date_close_approach" : 1084604400000,
        "relative_velocity" : {
          "kilometers_per_second" : "9.6896804991",
          "kilometers_per_hour" : "34882.8497967115",
          "miles_per_hour" : "21674.8463084067"
        },
        "miss_distance" : {
          "astronomical" : "0.3307879207",
          "lunar" : "128.6764984131",
          "kilometers" : "49485168",
          "miles" : "30748660"
        },
        "orbiting_body" : "Earth"
      } ],
      "orbital_data" : {
        "orbit_id" : "22",
        "orbit_determination_date" : "2017-04-06 09:05:55",
        "orbit_uncertainty" : "7",
        "minimum_orbit_intersection" : ".0267638",
        "jupiter_tisserand_invariant" : "6.999",
        "epoch_osculation" : "2458000.5",
        "eccentricity" : ".2485058764834487",
        "semi_major_axis" : ".8353618517513848",
        "inclination" : "6.888271489046621",
        "ascending_node_longitude" : "193.6607241404414",
        "orbital_period" : "278.875514628127",
        "perihelion_distance" : ".6277695226010702",
        "perihelion_argument" : "345.70375765939",
        "aphelion_distance" : "1.042954180901699",
        "perihelion_time" : "2458128.413661463274",
        "mean_anomaly" : "194.8764387286438",
        "mean_motion" : "1.290898559093832",
        "equinox" : "J2000"
      }
    } ]
  }
}